NORAD_CAT_ID,OBJECT_NAME,OBJECT_TYPE,EPOCH,MEAN_MOTION,ECCENTRICITY,INCLINATION,RA_OF_ASC_NODE,ARG_OF_PERICENTER,MEAN_ANOMALY,BSTAR,MEAN_MOTION_DOT,MEAN_MOTION_DDOT,TLE_LINE0,TLE_LINE1,TLE_LINE2,SEMIMAJOR_AXIS,PERIOD,APOGEE,PERIGEE,DECAYED
54166.0,STARLINK-5280,PAYLOAD,2022-11-14 14:00:01,15.73255765,0.0002132,53.2175,57.1094,19.5484,19.5563,-0.00028506,-0.00040535,0.0,0 STARLINK-5280,1 54166U 22141K   22318.58334491 -.00040535  00000-0 -28506-3 0  9998,2 54166  53.2175  57.1094 0002132  19.5484  19.5563 15.73255765  2795,6727.736,91.53,351.036,348.167,0.0
54166.0,STARLINK-5280,PAYLOAD,2022-11-14 22:00:00,15.73271996,0.000215,53.2172,55.4572,19.8591,108.2187,-0.00092006,-0.00128207,0.0,0 STARLINK-5280,1 54166U 22141K   22318.91667824 -.00128207  00000-0 -92006-3 0  9993,2 54166  53.2172  55.4572 0002150  19.8591 108.2187 15.73271996  1304,6727.69,91.529,351.001,348.108,0.0
54166.0,STARLINK-5280,PAYLOAD,2022-11-15 14:00:01,15.73246298,0.0002281,53.2179,52.161,17.823,288.11,-0.00059278,-0.00083172,0.0,0 STARLINK-5280,1 54166U 22141K   22319.58334491 -.00083172  00000-0 -59278-3 0  9993,2 54166  53.2179  52.1610 0002281  17.8230 288.1100 15.73246298  2942,6727.763000000001,91.53,351.163,348.094,0.0
54166.0,STARLINK-5280,PAYLOAD,2022-11-15 22:00:00,15.73218822,0.0002286,53.2176,50.5106,14.6048,20.2699,-0.00025635,-0.00036476,0.0,0 STARLINK-5280,1 54166U 22141K   22319.91667824 -.00036476  00000-0 -25635-3 0  9994,2 54166  53.2176  50.5106 0002286  14.6048  20.2699 15.73218822  1307,6727.842,91.532,351.244,348.1690000000001,0.0
54166.0,STARLINK-5280,PAYLOAD,2022-11-16 04:00:00,15.7317764,0.0002132,53.2174,49.2717,19.7048,351.8842,0.00017549,0.00024056,0.0,0 STARLINK-5280,1 54166U 22141K   22320.16667824  .00024056  00000-0  17549-3 0  9997,2 54166  53.2174  49.2717 0002132  19.7048 351.8842 15.73177640  3042,6727.959,91.534,351.2580000000001,348.39,0.0
54166.0,STARLINK-5280,PAYLOAD,2022-11-16 14:00:01,15.73204403,0.0002255,53.2175,47.2101,22.0633,190.7342,0.00023575,0.00032602,0.0,0 STARLINK-5280,1 54166U 22141K   22320.58335648  .00032602  00000-0  23575-3 0  9991,2 54166  53.2175  47.2101 0002255  22.0633 190.7342 15.73204403  1301,6727.8830000000025,91.533,351.265,348.23,0.0
54166.0,STARLINK-5280,PAYLOAD,2022-11-16 22:00:08,15.73222749,0.0001882,53.2172,45.557,22.1379,280.0061,-0.00021765,-0.00031085,0.0,0 STARLINK-5280,1 54166U 22141K   22320.91675926 -.00031085  00000-0 -21765-3 0  9999,2 54166  53.2172  45.5570 0001882  22.1379 280.0061 15.73222749  1306,6727.83,91.532,350.961,348.42900000000014,0.0
54166.0,STARLINK-5280,PAYLOAD,2022-11-17 12:00:00,15.73209786,0.0002671,53.2181,42.6759,22.3654,345.0489,0.00013513,0.00018394,0.0,0 STARLINK-5280,1 54166U 22141K   22321.50001157  .00018394  00000-0  13513-3 0  9992,2 54166  53.2181  42.6759 0002671  22.3654 345.0489 15.73209786  3256,6727.8669999999975,91.533,351.529,347.935,0.0
54166.0,STARLINK-5280,PAYLOAD,2022-11-17 14:00:01,15.7321093,0.0002731,53.2183,42.2639,22.0329,97.6172,0.00017268,0.00023695,0.0,0 STARLINK-5280,1 54166U 22141K   22321.58334491  .00023695  00000-0  17268-3 0  9991,2 54166  53.2183  42.2639 0002731  22.0329  97.6172 15.73210930  1300,6727.864000000001,91.533,351.566,347.892,0.0
54166.0,STARLINK-5280,PAYLOAD,2022-11-17 22:00:00,15.73247251,0.0002591,53.2181,40.6132,17.535,191.0696,-0.0009259,-0.00128882,0.0,0 STARLINK-5280,1 54166U 22141K   22321.91667824 -.00128882  00000-0 -92590-3 0  9994,2 54166  53.2181  40.6132 0002591  17.5350 191.0696 15.73247251  1301,6727.76,91.53,351.369,347.88199999999995,0.0
54166.0,STARLINK-5280,PAYLOAD,2022-11-18 06:00:00,15.73163618,0.000245,53.2182,38.9632,15.9868,281.5434,0.00041303,0.00057659,0.0,0 STARLINK-5280,1 54166U 22141K   22322.25001157  .00057659  00000-0  41303-3 0  9990,2 54166  53.2182  38.9632 0002450  15.9868 281.5434 15.73163618  3364,6727.999,91.535,351.51199999999994,348.216,0.0
54166.0,STARLINK-5280,PAYLOAD,2022-11-18 14:00:01,15.73188068,0.000277,53.2181,37.3158,16.6719,9.776,0.00032595,0.00045354,0.0,0 STARLINK-5280,1 54166U 22141K   22322.58334491  .00045354  00000-0  32595-3 0  9998,2 54166  53.2181  37.3158 0002770  16.6719   9.7760 15.73188068  1307,6727.929,91.534,351.658,347.931,0.0
54166.0,STARLINK-5280,PAYLOAD,2022-11-18 20:00:01,15.73245507,0.0002777,53.218,36.0779,17.7776,345.3612,-0.00065149,-0.00091267,0.0,0 STARLINK-5280,1 54166U 22141K   22322.83334491 -.00091267  00000-0 -65149-3 0  9993,2 54166  53.2180  36.0779 0002777  17.7776 345.3612 15.73245507  3469,6727.765,91.531,351.499,347.76199999999994,0.0
54166.0,STARLINK-5280,PAYLOAD,2022-11-18 22:00:00,15.73216558,0.0002727,53.2183,35.6648,19.0432,96.3416,-0.00035327,-0.00049953,0.0,0 STARLINK-5280,1 54166U 22141K   22322.91667824 -.00049953  00000-0 -35327-3 0  9991,2 54166  53.2183  35.6648 0002727  19.0432  96.3416 15.73216558  1301,6727.848000000001,91.532,351.548,347.87800000000016,0.0
54166.0,STARLINK-5280,PAYLOAD,2022-11-19 06:00:00,15.73180586,0.0002646,53.2186,34.0149,23.1776,181.1211,0.0004353,0.0006087,0.0,0 STARLINK-5280,1 54166U 22141K   22323.25001157  .00060870  00000-0  43530-3 0  9994,2 54166  53.2186  34.0149 0002646  23.1776 181.1211 15.73180586  3523,6727.951,91.534,351.596,348.035,0.0
54166.0,STARLINK-5280,PAYLOAD,2022-11-19 14:00:01,15.73216822,0.000296,53.2187,32.3675,20.149,273.0738,0.00010847,0.00014641,0.0,0 STARLINK-5280,1 54166U 22141K   22323.58334491  .00014641  00000-0  10847-3 0  9990,2 54166  53.2187  32.3675 0002960  20.1490 273.0738 15.73216822  1300,6727.847,91.532,351.704,347.721,0.0
54166.0,STARLINK-5280,PAYLOAD,2022-11-19 20:00:01,15.73238891,0.0002873,53.2183,31.1294,18.2962,251.6422,-0.00041688,-0.00058832,0.0,0 STARLINK-5280,1 54166U 22141K   22323.83334491 -.00058832  00000-0 -41688-3 0  9997,2 54166  53.2183  31.1294 0002873  18.2962 251.6422 15.73238891  3613,6727.784000000002,91.531,351.582,347.716,0.0
54166.0,STARLINK-5280,PAYLOAD,2022-11-19 22:00:00,15.73197377,0.0002755,53.2185,30.7165,18.2783,3.9109,0.00015246,0.00020828,0.0,0 STARLINK-5280,1 54166U 22141K   22323.91667824  .00020828  00000-0  15246-3 0  9998,2 54166  53.2185  30.7165 0002755  18.2783   3.9109 15.73197377  1304,6727.903,91.533,351.621,347.914,0.0
54166.0,STARLINK-5280,PAYLOAD,2022-11-20 06:00:00,15.7325715,0.0002699,53.2186,29.067,17.6418,93.4673,-0.00054755,-0.00076971,0.0,0 STARLINK-5280,1 54166U 22141K   22324.25001157 -.00076971  00000-0 -54755-3 0  9997,2 54166  53.2186  29.0670 0002699  17.6418  93.4673 15.73257150  3681,6727.732,91.53,351.413,347.781,0.0
54166.0,STARLINK-5280,PAYLOAD,2022-11-20 14:00:01,15.73196013,0.0002938,53.2185,27.4195,12.8286,187.2536,-2.1002e-05,-3.569e-05,0.0,0 STARLINK-5280,1 54166U 22141K   22324.58334491 -.00003569  00000-0 -21002-4 0  9996,2 54166  53.2185  27.4195 0002938  12.8286 187.2536 15.73196013  1307,6727.906999999997,91.533,351.74800000000016,347.795,0.0
54166.0,STARLINK-5280,PAYLOAD,2022-11-20 22:00:00,15.73193103,0.0002788,53.2185,25.7684,11.8755,277.1323,-0.00035693,-0.00050412,0.0,0 STARLINK-5280,1 54166U 22141K   22324.91667824 -.00050412  00000-0 -35693-3 0  9991,2 54166  53.2185  25.7684 0002788  11.8755 277.1323 15.73193103  3788,6727.915,91.534,351.656,347.904,0.0
54166.0,STARLINK-5280,PAYLOAD,2022-11-21 14:00:01,15.7323044,0.0003071,53.2187,22.4715,10.5626,96.2444,-6.2426e-05,-9.388e-05,0.0,0 STARLINK-5280,1 54166U 22141K   22325.58334491 -.00009388  00000-0 -62426-4 0  9997,2 54166  53.2187  22.4715 0003071  10.5626  96.2444 15.73230440  3890,6727.808000000001,91.531,351.73900000000015,347.607,0.0
54166.0,STARLINK-5280,PAYLOAD,2022-11-21 22:00:00,15.7322372,0.0002927,53.2186,20.8202,9.7697,185.9984,0.00013166,0.00017916,0.0,0 STARLINK-5280,1 54166U 22141K   22325.91667824  .00017916  00000-0  13166-3 0  9993,2 54166  53.2186  20.8202 0002927   9.7697 185.9984 15.73223720  1301,6727.828,91.532,351.662,347.723,0.0
54166.0,STARLINK-5280,PAYLOAD,2022-11-22 14:00:01,15.73198443,0.0003186,53.218,17.5233,12.1869,1.5698,5.9335e-05,7.713e-05,0.0,0 STARLINK-5280,1 54166U 22141K   22326.58335648  .00007713  00000-0  59335-4 0  9996,2 54166  53.2180  17.5233 0003186  12.1869   1.5698 15.73198443  4052,6727.9,91.533,351.908,347.621,0.0
54166.0,STARLINK-5280,PAYLOAD,2022-11-22 22:00:00,15.7319719,0.0002966,53.218,15.872,8.6205,93.9979,-0.00034975,-0.00049426,0.0,0 STARLINK-5280,1 54166U 22141K   22326.91667824 -.00049426  00000-0 -34975-3 0  9998,2 54166  53.2180  15.8720 0002966   8.6205  93.9979 15.73197190  1303,6727.903,91.533,351.764,347.773,0.0
54166.0,STARLINK-5280,PAYLOAD,2022-11-23 06:00:00,15.73172046,0.0003013999999999,53.2182,14.2228,9.8863,181.6297,0.00014539,0.0001981,0.0,0 STARLINK-5280,1 54166U 22141K   22327.25001157  .00019810  00000-0  14539-3 0  9993,2 54166  53.2182  14.2228 0003014   9.8863 181.6297 15.73172046  4156,6727.975,91.535,351.86800000000005,347.81199999999984,0.0
54166.0,STARLINK-5280,PAYLOAD,2022-11-23 14:00:01,15.73165415,0.0003337,53.218,12.5751,9.0174,271.4075,0.00066714,0.0009394,0.0,0 STARLINK-5280,1 54166U 22141K   22327.58334491  .00093940  00000-0  66714-3 0  9997,2 54166  53.2180  12.5751 0003337   9.0174 271.4075 15.73165415  1309,6727.994000000002,91.535,352.10400000000016,347.61400000000015,0.0
54166.0,STARLINK-5280,PAYLOAD,2022-11-23 22:00:00,15.7322635,0.0003089,53.218,10.9236,8.1532,1.2017,-0.00028895,-0.00041034,0.0,0 STARLINK-5280,1 54166U 22141K   22327.91667824 -.00041034  00000-0 -28895-3 0  9990,2 54166  53.2180  10.9236 0003089   8.1532   1.2017 15.73226350  1302,6727.82,91.532,351.76300000000015,347.607,0.0
54166.0,STARLINK-5280,PAYLOAD,2022-11-24 06:00:02,15.73207445,0.0003163,53.2177,9.2747,8.5938,89.7628,5.9253e-05,7.705e-05,0.0,0 STARLINK-5280,1 54166U 22141K   22328.25002315  .00007705  00000-0  59253-4 0  9994,2 54166  53.2177   9.2747 0003163   8.5938  89.7628 15.73207445  4310,6727.874,91.533,351.867,347.611,0.0
